OBJECT_NAME,OBJECT_ID,EPOCH,MEAN_MOTION,ECCENTRICITY,INCLINATION,RA_OF_ASC_NODE,ARG_OF_PERICENTER,MEAN_ANOMALY,EPHEMERIS_TYPE,CLASSIFICATION_TYPE,NORAD_CAT_ID,ELEMENT_SET_NO,REV_AT_EPOCH,BSTAR,MEAN_MOTION_DOT,MEAN_MOTION_DDOT
STARLINK-37361,2026-110L,2026-06-15T04:00:01.998720,15.33453757,.0002147,97.2840,2.6135,90.8861,132.8442,0,U,69134,999,533,-.13223E-2,-.42539E-3,0
STARLINK-37372,2026-110M,2026-06-15T04:53:20.150016,15.47218191,.000155,97.2829,2.6205,39.2839,320.8524,0,U,69135,999,530,-.11417E-1,-.541629E-2,0
STARLINK-37531,2026-110N,2026-06-15T04:00:01.998720,15.36426004,.0002565,97.2841,2.6288,89.3913,162.7271,0,U,69136,999,533,-.13008E+0,-.3994702E-1,0
STARLINK-37662,2026-110P,2026-06-15T03:19:33.517632,15.48045909,.0002077,97.2828,2.5565,174.8014,185.3259,0,U,69137,999,529,-.75972E-2,-.378667E-2,0
STARLINK-37658,2026-110Q,2026-06-15T02:31:53.885856,15.49217626,.000131,97.2831,2.4483,98.8831,261.2569,0,U,69138,999,528,.11324E-2,.62045E-3,0
STARLINK-37659,2026-110R,2026-06-15T02:43:00.663168,15.49185652,.0001908,97.2839,2.4379,66.7224,293.4228,0,U,69139,999,528,.11341E-2,.62074E-3,0
STARLINK-37653,2026-110S,2026-06-15T02:46:31.442880,15.49217728,.0001402,97.2838,2.4360,81.9506,278.1904,0,U,69140,999,528,.14678E-2,.80644E-3,0
STARLINK-37654,2026-110T,2026-06-15T01:43:48.849888,15.49241161,.0002427,97.2826,2.4939,88.5872,271.5657,0,U,69141,999,528,.10683E-2,.58553E-3,0
STARLINK-37655,2026-110U,2026-06-15T04:00:01.998720,15.42897450,.0002151,97.2838,2.6356,97.6275,168.1691,0,U,69142,999,533,-.63201E-1,-.2459827E-1,0
STARLINK-37636,2026-110V,2026-06-15T04:00:01.998720,15.33396384,.0001955,97.2847,2.6736,82.6510,276.1816,0,U,69143,999,533,-.85537E-3,-.27549E-3,0
STARLINK-37638,2026-110W,2026-06-15T04:00:01.998720,15.33441318,.0001351,97.2847,2.6798,85.0826,288.6942,0,U,69144,999,533,-.97919E-3,-.31552E-3,0
STARLINK-37657,2026-110X,2026-06-15T01:44:06.301824,15.49236504,.0001846,97.2823,2.4942,84.2287,275.9175,0,U,69145,999,528,.10212E-2,.55938E-3,0
STARLINK-37639,2026-110Y,2026-06-15T04:00:01.998720,15.33449924,.0001863,97.2845,2.6956,88.8655,314.9148,0,U,69146,999,538,-.14179E-2,-.45584E-3,0
STARLINK-37661,2026-110Z,2026-06-15T02:14:59.324352,15.49213941,.0001343,97.2842,2.4643,75.2482,284.8918,0,U,69147,999,528,.77149E-3,.4213E-3,0
STARLINK-37395,2026-111A,2026-06-15T04:00:01.998720,15.64828637,.000121,53.1595,161.9974,68.9979,87.7800,0,U,69148,999,522,-.81247E-2,-.738594E-2,0
STARLINK-37346,2026-111B,2026-06-15T04:00:01.998720,15.49289279,.0001439,53.1598,162.4783,79.0142,200.4606,0,U,69149,999,522,.33012E-3,.17941E-3,0
STARLINK-37332,2026-111C,2026-06-15T04:00:01.998720,15.49299957,.0001238,53.1587,162.8042,88.5686,30.0826,0,U,69150,999,522,.17419E-3,.9248E-4,0
STARLINK-37297,2026-111D,2026-06-15T04:00:01.998720,15.66090093,.0002288,53.1597,161.9353,88.0702,99.0336,0,U,69151,999,522,-.31931E-1,-.2917441E-1,0
STARLINK-37317,2026-111E,2026-06-15T04:00:01.998720,15.70330922,.0001192,53.1599,161.8245,102.2687,138.9682,0,U,69152,999,522,-.2369E-1,-.2565862E-1,0
STARLINK-37374,2026-111F,2026-06-15T04:00:01.998720,15.49302224,.0000877,53.1590,162.9808,92.0597,298.9910,0,U,69153,999,522,.73955E-4,.3666E-4,0
STARLINK-37235,2026-111G,2026-06-15T04:22:51.710880,15.49334962,.0001254,53.1596,163.1482,83.3764,276.7388,0,U,69154,999,392,.96157E-3,.53446E-3,0
STARLINK-37329,2026-111H,2026-06-15T04:00:01.998720,15.70269332,.0001201,53.1600,161.8277,106.4851,133.0104,0,U,69155,999,522,-.24316E-1,-.2618567E-1,0
STARLINK-37345,2026-111J,2026-06-15T04:00:01.998720,15.71914053,.0001117,53.1601,161.7899,105.8601,152.3588,0,U,69156,999,522,-.22485E-1,-.2599688E-1,0
STARLINK-37353,2026-111K,2026-06-15T04:00:01.998720,15.72146533,.0001079,53.1601,161.7847,108.6011,152.0091,0,U,69157,999,522,-.22028E-1,-.2576019E-1,0
STARLINK-37363,2026-111L,2026-06-15T04:00:01.998720,15.71033285,.0000739,53.1600,161.7852,96.5416,163.5961,0,U,69158,999,522,-.12976E-1,-.146327E-1,0
STARLINK-37343,2026-111M,2026-06-15T04:00:01.998720,15.49303065,.000095,53.1590,162.9817,89.1863,301.0915,0,U,69159,999,522,.86512E-4,.4365E-4,0
STARLINK-37328,2026-111N,2026-06-13T17:21:52.143552,15.80975520,.00028828,53.1569,168.9418,21.7732,338.3413,0,U,69160,999,371,.21155205E-2,.440945E-2,0
STARLINK-37311,2026-111P,2026-06-15T04:00:01.998720,15.75513755,.0001109,53.1585,161.8787,98.9929,116.1327,0,U,69161,999,522,-.18849E-1,-.2497585E-1,0
STARLINK-36286,2026-111Q,2026-06-14T01:13:18.759648,15.78761169,.00020619,53.1564,167.4332,147.7855,212.3293,0,U,69162,999,376,.26694472E-2,.507206E-2,0
STARLINK-37196,2026-111R,2026-06-14T13:26:54.237408,15.78098124,.0001435,53.1566,164.9214,48.8780,311.2365,0,U,69163,999,384,.77789E-3,.136844E-2,0
