STARLINK-37361          
1 69134U 26110L   26166.16668980 -.00042539  00000+0 -13223-2 0  9995
2 69134  97.2840   2.6135 0002147  90.8861 132.8442 15.33453757  5336
STARLINK-37372          
1 69135U 26110M   26166.20370544 -.00541629  00000+0 -11417-1 0  9993
2 69135  97.2829   2.6205 0001550  39.2839 320.8524 15.47218191  5304
STARLINK-37531          
1 69136U 26110N   26166.16668980 -.03994702  00000+0 -13008+0 0  9996
2 69136  97.2841   2.6288 0002565  89.3913 162.7271 15.36426004  5333
STARLINK-37662          
1 69137U 26110P   26166.13858238 -.00378667  00000+0 -75972-2 0  9995
2 69137  97.2828   2.5565 0002077 174.8014 185.3259 15.48045909  5292
STARLINK-37658          
1 69138U 26110Q   26166.10548479  .00062045  00000+0  11324-2 0  9995
2 69138  97.2831   2.4483 0001310  98.8831 261.2569 15.49217626  5281
STARLINK-37659          
1 69139U 26110R   26166.11320212  .00062074  00000+0  11341-2 0  9991
2 69139  97.2839   2.4379 0001908  66.7224 293.4228 15.49185652  5289
STARLINK-37653          
1 69140U 26110S   26166.11564170  .00080644  00000+0  14678-2 0  9995
2 69140  97.2838   2.4360 0001402  81.9506 278.1904 15.49217728  5282
STARLINK-37654          
1 69141U 26110T   26166.07209317  .00058553  00000+0  10683-2 0  9996
2 69141  97.2826   2.4939 0002427  88.5872 271.5657 15.49241161  5289
STARLINK-37655          
1 69142U 26110U   26166.16668980 -.02459827  00000+0 -63201-1 0  9998
2 69142  97.2838   2.6356 0002151  97.6275 168.1691 15.42897450  5336
STARLINK-37636          
1 69143U 26110V   26166.16668980 -.00027549  00000+0 -85537-3 0  9997
2 69143  97.2847   2.6736 0001955  82.6510 276.1816 15.33396384  5335
STARLINK-37638          
1 69144U 26110W   26166.16668980 -.00031552  00000+0 -97919-3 0  9994
2 69144  97.2847   2.6798 0001351  85.0826 288.6942 15.33441318  5337
STARLINK-37657          
1 69145U 26110X   26166.07229516  .00055938  00000+0  10212-2 0  9995
2 69145  97.2823   2.4942 0001846  84.2287 275.9175 15.49236504  5289
STARLINK-37639          
1 69146U 26110Y   26166.16668980 -.00045584  00000+0 -14179-2 0  9992
2 69146  97.2845   2.6956 0001863  88.8655 314.9148 15.33449924  5389
STARLINK-37661          
1 69147U 26110Z   26166.09374218  .00042130  00000+0  77149-3 0  9992
2 69147  97.2842   2.4643 0001343  75.2482 284.8918 15.49213941  5283
STARLINK-37395          
1 69148U 26111A   26166.16668980 -.00738594  00000+0 -81247-2 0  9995
2 69148  53.1595 161.9974 0001210  68.9979  87.7800 15.64828637  5226
STARLINK-37346          
1 69149U 26111B   26166.16668980  .00017941  00000+0  33012-3 0  9998
2 69149  53.1598 162.4783 0001439  79.0142 200.4606 15.49289279  5226
STARLINK-37332          
1 69150U 26111C   26166.16668980  .00009248  00000+0  17419-3 0  9994
2 69150  53.1587 162.8042 0001238  88.5686  30.0826 15.49299957  5228
STARLINK-37297          
1 69151U 26111D   26166.16668980 -.02917441  00000+0 -31931-1 0  9995
2 69151  53.1597 161.9353 0002288  88.0702  99.0336 15.66090093  5225
STARLINK-37317          
1 69152U 26111E   26166.16668980 -.02565862  00000+0 -23690-1 0  9995
2 69152  53.1599 161.8245 0001192 102.2687 138.9682 15.70330922  5221
STARLINK-37374          
1 69153U 26111F   26166.16668980  .00003666  00000+0  73955-4 0  9993
2 69153  53.1590 162.9808 0000877  92.0597 298.9910 15.49302224  5226
STARLINK-37235          
1 69154U 26111G   26166.18254295  .00053446  00000+0  96157-3 0  9995
2 69154  53.1596 163.1482 0001254  83.3764 276.7388 15.49334962  3925
STARLINK-37329          
1 69155U 26111H   26166.16668980 -.02618567  00000+0 -24316-1 0  9995
2 69155  53.1600 161.8277 0001201 106.4851 133.0104 15.70269332  5223
STARLINK-37345          
1 69156U 26111J   26166.16668980 -.02599688  00000+0 -22485-1 0  9993
2 69156  53.1601 161.7899 0001117 105.8601 152.3588 15.71914053  5224
STARLINK-37353          
1 69157U 26111K   26166.16668980 -.02576019  00000+0 -22028-1 0  9990
2 69157  53.1601 161.7847 0001079 108.6011 152.0091 15.72146533  5228
STARLINK-37363          
1 69158U 26111L   26166.16668980 -.01463270  00000+0 -12976-1 0  9995
2 69158  53.1600 161.7852 0000739  96.5416 163.5961 15.71033285  5221
STARLINK-37343          
1 69159U 26111M   26166.16668980  .00004365  00000+0  86512-4 0  9999
2 69159  53.1590 162.9817 0000950  89.1863 301.0915 15.49303065  5222
STARLINK-37328          
1 69160U 26111N   26164.72352018  .00440945  00000+0  21155-2 0  9991
2 69160  53.1569 168.9418 0002882  21.7732 338.3413 15.80975520  3710
STARLINK-37311          
1 69161U 26111P   26166.16668980 -.02497585  00000+0 -18849-1 0  9991
2 69161  53.1585 161.8787 0001109  98.9929 116.1327 15.75513755  5221
STARLINK-36286          
1 69162U 26111Q   26165.05091157  .00507206  00000+0  26694-2 0  9991
2 69162  53.1564 167.4332 0002061 147.7855 212.3293 15.78761169  3761
STARLINK-37196          
1 69163U 26111R   26165.56034997  .00136844  00000+0  77789-3 0  9995
2 69163  53.1566 164.9214 0001435  48.8780 311.2365 15.78098124  3849
